0 SL-23 R/B
1 32782U 08020B   13280.21911810  .00000050  00000-0  10000-3 0  7334
2 32782 055.8987 151.8415 0025569 187.0180 173.0596 01.67952826 33422
0 SL-23 R/B
1 32782U 08020B   13287.36376848  .00000033  00000-0  10000-3 0  7356
2 32782 055.8997 151.6546 0025606 187.2196 172.8394 01.67952822 33549
0 SL-23 R/B
1 32782U 08020B   13290.34073801  .00000044  00000-0  10000-3 0  7364
2 32782 055.9001 151.5768 0025714 187.5217 172.5486 01.67952804 33592
0 SL-23 R/B
1 32782U 08020B   13290.34075904  .00000018  00000-0  10000-3 0  7372
2 32782 055.8995 151.5775 0025783 187.5086 172.5673 01.67951305 33594
0 SL-23 R/B
1 32782U 08020B   13293.31768674  .00000038  00000-0  10000-3 0  7377
2 32782 055.9006 151.4989 0025627 187.4015 172.6656 01.67952794 33643
